YAOGAN-30 10B           
1 48861U 21055B   26204.65587712  .00002471  00000+0  18299-3 0  9990
2 48861  34.9956 289.5806 0003719  26.6680 333.4219 15.02817010278660
