[
  {
    "OBJECT_NAME": "YAOGAN-30 10B",
    "OBJECT_ID": "2021-055B",
    "EPOCH": "2026-07-23T15:44:27.783168",
    "MEAN_MOTION": 15.0281701,
    "ECCENTRICITY": 0.0003719,
    "INCLINATION": 34.9956,
    "RA_OF_ASC_NODE": 289.5806,
    "ARG_OF_PERICENTER": 26.668,
    "MEAN_ANOMALY": 333.4219,
    "EPHEMERIS_TYPE": 0,
    "CLASSIFICATION_TYPE": "U",
    "NORAD_CAT_ID": 48861,
    "ELEMENT_SET_NO": 999,
    "REV_AT_EPOCH": 27866,
    "BSTAR": 0.00018299,
    "MEAN_MOTION_DOT": 0.00002471,
    "MEAN_MOTION_DDOT": 0
  }
]
